LANDSAT 9               
1 49260U 21088A   24045.70357806  .00001024  00000+0  23729-3 0  9993
2 49260  98.2016 117.3415 0001060 108.4778 251.6536 14.57128341126703
